[{"name": "გიორგი დანელიას ქუჩა", "maxspeed": "60"}, {"name": "ელიზბარ მინდელის ქუჩა", "maxspeed": "40"}, {"name": "ანა პოლიტკოვსკაიას ქუჩა", "maxspeed": "40"}, {"name": "ზურაბ ანჯაფარიძის ქუჩა", "maxspeed": "40"}, {"name": "ალექსანდრე იოსელიანის ქუჩა", "maxspeed": "30"}, {"name": "უნივერსიტეტის ქუჩა", "maxspeed": "60"}, {"name": "ვაჟა-ფშაველას გამზირი", "maxspeed": "60"}, {"name": "ვაჰან მამასახლისოვის ქუჩა", "maxspeed": "40"}, {"name": "პეტრე ქავთარაძის ქუჩა", "maxspeed": "40"}, {"name": "პ. ქავთარაძის ქუჩა", "maxspeed": "40"}, {"name": "შალვა ნუცუბიძის ქუჩა", "maxspeed": "40"}, {"name": "ბესარიონ ჟღენტის ქუჩა", "maxspeed": "60"}, {"name": "დავით თავხელიძის ქუჩა", "maxspeed": "60"}, {"name": "მარიჯანის ქუჩა", "maxspeed": "40"}, {"name": "ვარლამ თოფურიას ქუჩა", "maxspeed": "40"}, {"name": "არჩილ გელოვანის ქუჩა", "maxspeed": "40"}, {"name": "შალვა მიქელაძის ქუჩა", "maxspeed": "30"}, {"name": "რამაზ ჩხიკვაძის ქუჩა", "maxspeed": "60"}, {"name": "ალექსანდრე ყაზბეგის გამზირი", "maxspeed": "50"}, {"name": "პაატა დათუაშვილის ქუჩა", "maxspeed": "60"}, {"name": "თ. ბუაჩიძის ქუჩა", "maxspeed": "40"}, {"name": "ელგუჯა ამაშუკელის ქუჩა", "maxspeed": "70"}, {"name": "გაზაფხულის ქუჩა", "maxspeed": "30"}, {"name": "Nutsubidze Plato, 3 M/R, 4 Block Road.", "maxspeed": "20"}, {"name": "Nutsubidze Plato, 3 M/R, 3 Block Road.", "maxspeed": "20"}, {"name": "დელისის III ქ. (Delisi III str.)", "maxspeed": "20"}, {"name": "დელისის III ქ. (Delisi III Str.)", "maxspeed": "20"}, {"name": "Nutsubidze Plato, 3 M/R, 4 Block road.", "maxspeed": "20"}, {"name": "დელისის ქუჩა", "maxspeed": "40"}, {"name": "თამაზ ნადარეიშვილის ქუჩა", "maxspeed": "40"}, {"name": "მიხეილ ასათიანის ქუჩა", "maxspeed": "60"}, {"name": "გ. გაბაშვილის ქუჩა", "maxspeed": "40"}, {"name": "გივი კარტოზიას ქუჩა", "maxspeed": "60"}, {"name": "მიხეილ თამარაშვილის ქუჩა", "maxspeed": "50"}, {"name": "ტანძიის ქუჩა", "maxspeed": "40"}, {"name": "იონა ვაკელის ქუჩა", "maxspeed": "40"}, {"name": "ადამ მიცკევიჩის ქუჩა", "maxspeed": "60"}, {"name": "ბახტრიონის ქუჩა", "maxspeed": "60"}, {"name": "სულხან ცინცაძის ქუჩა", "maxspeed": "80"}, {"name": "საირმის ქუჩა", "maxspeed": "30"}, {"name": "ზაზა ფანასკერტელ-ციციშვილის ქუჩა", "maxspeed": "60"}, {"name": "ზაზა ფანასკერტელ-ციციშვილის ქუჩა (Zaza Panaskerteli-Tsitsishvili St)", "maxspeed": "60"}, {"name": "ჭაბუა ამირეჯიბის გზატკეცილი", "maxspeed": "80"}, {"name": "სიმონ ჩიქოვანის ქუჩა", "maxspeed": "40"}, {"name": "პლატონ იოსელიანის ქუჩა", "maxspeed": "60"}, {"name": "ლიხაურის შესახვევი", "maxspeed": "60"}, {"name": "თენგიზ აბულაძის ქუჩა", "maxspeed": "60"}, {"name": "ნიკოლოზ ყიფშიძის ქუჩა", "maxspeed": "50"}, {"name": "ლევან მიქელაძის ქუჩა", "maxspeed": "60"}, {"name": "ზურაბ ავალიშვილის ქუჩა", "maxspeed": "60"}, {"name": "ნუგზარ საჯაიას ქუჩა", "maxspeed": "60"}, {"name": "ილია ჭავჭავაძის გამზირი", "maxspeed": "60"}, {"name": "ნიკოლოზ ბერძენიშვილის ქუჩა", "maxspeed": "60"}, {"name": "დარიალის ქუჩა", "maxspeed": "60"}, {"name": "არჩილ მიშველაძის ქუჩა", "maxspeed": "60"}, {"name": "ოთარი თაქთაქიშვილის ქუჩა", "maxspeed": "60"}, {"name": "ლ. კავსაძის ქუჩა", "maxspeed": "60"}, {"name": "ნინო რამიშვილის ქუჩა", "maxspeed": "40"}, {"name": "არაყიშვილის ქუჩა", "maxspeed": "60"}, {"name": "ტიციან ტაბიძის ქუჩა", "maxspeed": "60"}, {"name": "ალეკო შენგელიას ქუჩა", "maxspeed": "50"}, {"name": "ჯანაშვილის ქუჩა", "maxspeed": "30"}, {"name": "კორნელი კეკელიძის ქუჩა", "maxspeed": "30"}, {"name": "რუსთაველის გამზირი", "maxspeed": "40"}, {"name": "პირველი რესპუბლიკის მოედანი", "maxspeed": "40"}, {"name": "მ. ჯავახიშვილის ქუჩა", "maxspeed": "40"}, {"name": "მერაბ კოსტავას ქუჩა", "maxspeed": "50"}, {"name": "მარცხენა სანაპირო", "maxspeed": "70"}, {"name": "ინაშვილის ქუჩა", "maxspeed": "40"}, {"name": "რევაზ თაბუკაშვილის ქუჩა", "maxspeed": "40"}, {"name": "პრეზიდენტ ზ. გამსახურდიას სანაპირო", "maxspeed": "60"}, {"name": "პრეზიდენტ ზვიად გამსახურდიას სანაპირო", "maxspeed": "60"}, {"name": "დიმიტრი უზნაძის ქუჩა", "maxspeed": "40"}, {"name": "მიხეილ ჯავახიშვილის ქუჩა", "maxspeed": "40"}, {"name": "დავით აღმაშენებლის გამზირი", "maxspeed": "50"}, {"name": "ძმები ზუბალაშვილების ქუჩა", "maxspeed": "60"}, {"name": "ალექსანდრე ჭავჭავაძის  ქუჩა", "maxspeed": "60"}, {"name": "ლადო ალექსი-მესხიშვილი ქუჩა", "maxspeed": "20"}, {"name": "გიორგი ჭანტურიას ქუჩა", "maxspeed": "40"}, {"name": "ნიკოლოზ ბარათაშვილის აღმართი", "maxspeed": "50"}, {"name": "ნიკოლოზ ბარათაშვილის გამზირი", "maxspeed": "50"}, {"name": "ალექსანდრე პუშკინის ქუჩა", "maxspeed": "40"}, {"name": "ნ. ბარათაშვილის გამზირი", "maxspeed": "50"}, {"name": "ნიკოლოზ ბარათაშვილის ხიდი", "maxspeed": "50"}, {"name": "ღვინის აღმართი", "maxspeed": "30"}, {"name": "მთავარანგელოზის ქუჩა", "maxspeed": "40"}, {"name": "ნ. ბარათაშვილის აღმართი", "maxspeed": "50"}, {"name": "ქეთევან დედოფლის გამზირი", "maxspeed": "50"}, {"name": "ვახტანგ გორგასალის ქუჩა", "maxspeed": "60"}, {"name": "კოტე აფხაზის ქუჩა", "maxspeed": "40"}, {"name": "ჰოვანეს თუმანიანის ქუჩა", "maxspeed": "30"}, {"name": "იერუსალიმის ქუჩა", "maxspeed": "40"}, {"name": "გრიშაშვილის ქუჩა", "maxspeed": "40"}, {"name": "ფირდოუსის ქუჩა", "maxspeed": "40"}, {"name": "გულუას ქუჩა", "maxspeed": "60"}, {"name": "ვახტანგ გორგასლის ქუჩა", "maxspeed": "60"}, {"name": "კახეთის გზატკეცილი", "maxspeed": "80"}, {"name": "მოსკოვის გამზირი", "maxspeed": "50"}, {"name": "ნოე რამიშვილის ქუჩა", "maxspeed": "60"}, {"name": "მარჯვენა სანაპირო", "maxspeed": "80"}, {"name": "ბერი გაბრიელ სალოსის გამზირი", "maxspeed": "50"}, {"name": "ლეილა აბაშიძის ქუჩა", "maxspeed": "50"}, {"name": "ჯორჯ ბუშის ქუჩა", "maxspeed": "60"}, {"name": "კაკაბეთის ქუჩა", "maxspeed": "50"}, {"name": "ვლადიმერ მიქელაძის ქუჩა", "maxspeed": "20"}, {"name": "წალენჯიხის ქუჩა", "maxspeed": "30"}, {"name": "მესხეთის ქუჩა", "maxspeed": "50"}, {"name": "ათანასე ხარაბაძის ქუჩა", "maxspeed": "40"}, {"name": "ჯავახეთის ქუჩა", "maxspeed": "50"}, {"name": "ლადო ასათიანი ქუჩა", "maxspeed": "40"}, {"name": "თონეთის მოედანი", "maxspeed": "40"}, {"name": "მელაანის ქუჩა", "maxspeed": "50"}, {"name": "ლეხ კაჩინსკის ქუჩა", "maxspeed": "40"}, {"name": "თრიალეთის ქუჩა", "maxspeed": "60"}, {"name": "ნიაბის ქუჩა", "maxspeed": "40"}, {"name": "თ. დავითაიას ქუჩა", "maxspeed": "50"}, {"name": "თეოფანე დავითაიას ქუჩა", "maxspeed": "50"}, {"name": "შალვა მშველიძის ქუჩა", "maxspeed": "40"}, {"name": "ვიქტორ კუპრაძის ქუჩა", "maxspeed": "50"}, {"name": "პარკის ქუჩა", "maxspeed": "50"}, {"name": "ბომბორას ქუჩა", "maxspeed": "50"}, {"name": "ვახტანგ ჭაბუკიანის ქუჩა", "maxspeed": "40"}, {"name": "პეკინის გამზირი", "maxspeed": "60"}, {"name": "ჟიული შარტავას ქუჩა", "maxspeed": "40"}, {"name": "ლევან გოთუას ქუჩა", "maxspeed": "40"}, {"name": "ამაღლების ქუჩა", "maxspeed": "40"}, {"name": "დანიელ ჭონქაძის ქუჩა", "maxspeed": "60"}, {"name": "მარო მაყაშვილის აღმართი", "maxspeed": "60"}, {"name": "გიორგი ლეონიძის ქუჩა", "maxspeed": "40"}, {"name": "გერონტი ქიქოძის ქუჩა", "maxspeed": "40"}, {"name": "მიხეილ ლერმონტოვის ქუჩა", "maxspeed": "40"}, {"name": "შალვა დადიანის ქუჩა", "maxspeed": "40"}, {"name": "პუშკინის ქუჩა", "maxspeed": "40"}, {"name": "პეტრე მელიქიშვილის გამზირი", "maxspeed": "60"}, {"name": "მრგვალი ბაღი", "maxspeed": "60"}, {"name": "მელიქიშვილის გამზირი", "maxspeed": "60"}, {"name": "კოტე მარჯანიშვილის ქუჩა", "maxspeed": "40"}, {"name": "პრესიდენტი ჰეიდარ ალიევის სანაპირო Presidend Heydar Aliyev Embankment", "maxspeed": "70"}, {"name": "გმირთა მოედანი", "maxspeed": "50"}, {"name": "თამარ მეფის გამზირი", "maxspeed": "50"}, {"name": "მუხრან მაჭავარიანის ქუჩა", "maxspeed": "70"}, {"name": "ბერიტაშვილის ქუჩა", "maxspeed": "40"}, {"name": "პრეზიდენტ ჰეიდარ ალიევის სანაპირო", "maxspeed": "70"}, {"name": "პრესიდენტი ჰეიდარ ალიევის სანაპირო", "maxspeed": "70"}, {"name": "თამარ მეფის ხიდი", "maxspeed": "50"}, {"name": "გენერალ კვინიტაძის ქუჩა", "maxspeed": "40"}, {"name": "ცოტნე დადიანის ქუჩა", "maxspeed": "40"}, {"name": "ნიკო ფიროსმანის ქუჩა", "maxspeed": "40"}, {"name": "ნ. გოგოლის ქუჩა", "maxspeed": "30"}, {"name": "პაატა სააკაძის ქუჩა", "maxspeed": "40"}, {"name": "ტერენტი გრანელის ქუჩა", "maxspeed": "40"}, {"name": "გ. ჩიტაიას ქუჩა", "maxspeed": "40"}, {"name": "გიორგი მაზნიაშვილის ქუჩა", "maxspeed": "40"}, {"name": "არნოლდ ჩიქობავას ქუჩა", "maxspeed": "40"}, {"name": "ივანე ჯავახიშვილის ქუჩა", "maxspeed": "60"}, {"name": "ლამის ქუჩა", "maxspeed": "40"}, {"name": "გუმათის ქუჩა", "maxspeed": "40"}, {"name": "ოთარ კაპანაძის ქუჩა", "maxspeed": "40"}, {"name": "გიგო ზაზიაშვილის ქუჩა", "maxspeed": "40"}, {"name": "გიორგი მარუაშვილის ქუჩა", "maxspeed": "40"}, {"name": "მ. მამარდაშვილის ქუჩა", "maxspeed": "40"}, {"name": "ნორიოს აღმართი", "maxspeed": "50"}, {"name": "მნათობის ქუჩა", "maxspeed": "40"}, {"name": "ნორიოს აღმართი Norio Rise", "maxspeed": "40"}, {"name": "ოთარ ჩეჩელაშვილის ქუჩა", "maxspeed": "40"}, {"name": "ცაიშის ქუჩა", "maxspeed": "50"}, {"name": "ატოცის ქუჩა", "maxspeed": "50"}, {"name": "გიორგი სააკაძის მოედანი", "maxspeed": "40"}, {"name": "ჟ. შარტავას ქუჩა", "maxspeed": "40"}, {"name": "კუს ტბის აღმართი", "maxspeed": "60"}, {"name": "ვლადიმერ და არჩილ ასათიანების ქუჩა", "maxspeed": "80"}, {"name": "სიმონ კანდელაკის ქუჩა", "maxspeed": "40"}, {"name": "ბუდაპეშტის ქუჩა", "maxspeed": "40"}, {"name": "ს. კანდელაკის ქ.", "maxspeed": "40"}, {"name": "იური გაგარინის ქუჩა", "maxspeed": "40"}, {"name": "ზურაბ ჟვანიას მოედანი", "maxspeed": "40"}, {"name": "I. Gagarin Street", "maxspeed": "40"}, {"name": "აკაკი ბაქრაძის ქუჩა", "maxspeed": "70"}, {"name": "მარშალ გელოვანის გამზირი", "maxspeed": "60"}, {"name": "რევაზ ურიდიას ქუჩა", "maxspeed": "40"}, {"name": "გიორგი სააკაძის ქუჩა", "maxspeed": "40"}, {"name": "ვახუშტი ბაგრატიონის ხიდი", "maxspeed": "62"}, {"name": "ეროსი მანჯგალაძის ქუჩა", "maxspeed": "40"}, {"name": "ნ. ხუდადოვის ქუჩა", "maxspeed": "50"}, {"name": "წყაროს ქუჩა", "maxspeed": "20"}, {"name": "კახიანის ქუჩა", "maxspeed": "60"}, {"name": "უიარაღოს ქუჩა", "maxspeed": "60"}, {"name": "უცნობ გმირთა ქუჩა", "maxspeed": "60"}, {"name": "მახათას აღმართი", "maxspeed": "40"}, {"name": "მარშალ იოზეფ პილსუდსკის გამზირი", "maxspeed": "60"}, {"name": "ს. ყაუხჩიშვილის ქუჩა", "maxspeed": "40"}, {"name": "ზურაბ პატარიძის ქუჩა", "maxspeed": "50"}, {"name": "ალ. ყანჩელი ქუჩა", "maxspeed": "50"}, {"name": "ვალენტინ თოფურიძე", "maxspeed": "40"}, {"name": "პეტრე სარაჯიშვილის ქუჩა (Petre Sarajishvili St.)", "maxspeed": "60"}, {"name": "გრიგოლ რობაქიძის გამზირი", "maxspeed": "80"}, {"name": "გრიგორი თოფჩიშვილის სახელობის ხიდი", "maxspeed": "40"}, {"name": "აკაკი ბელიაშვილის ქუჩა", "maxspeed": "70"}, {"name": "ლეო კვაჭაძის ქუჩა", "maxspeed": "60"}, {"name": "გიორგი წერეთლის გასასვლელი", "maxspeed": "40"}, {"name": "ლ. კვაჭაძის ქუჩა", "maxspeed": "60"}, {"name": "Round about entry", "maxspeed": "60"}, {"name": "Exit from round about", "maxspeed": "60"}, {"name": "ასკურავას ქუჩა", "maxspeed": "60"}, {"name": "ნ. ჩხიკვაძის ქუჩა", "maxspeed": "60"}, {"name": "Gushkuri Street", "maxspeed": "60"}, {"name": "Sachilao Drive", "maxspeed": "60"}, {"name": "კისისხევის ქუჩა", "maxspeed": "60"}, {"name": "წაღვერის ქუჩა", "maxspeed": "60"}, {"name": "Dzmoba I Street", "maxspeed": "60"}, {"name": "I. Sturua Street", "maxspeed": "60"}, {"name": "მიხეილ მესხის ქუჩა", "maxspeed": "60"}, {"name": "ძმობას ქუჩა", "maxspeed": "60"}, {"name": "ნოსტეს ქუჩა", "maxspeed": "60"}, {"name": "Noste I Lane", "maxspeed": "60"}, {"name": "Kakhiani II Lane", "maxspeed": "60"}, {"name": "Kakhiani I Lane", "maxspeed": "60"}, {"name": "N. Kakhiani III Lane", "maxspeed": "60"}, {"name": "O. Kelaptrishvili Lane", "maxspeed": "60"}, {"name": "მუშათა ქუჩა", "maxspeed": "60"}, {"name": "თელიას ქუჩა", "maxspeed": "60"}, {"name": "ბესარიონ ქებურიას ქუჩა", "maxspeed": "60"}, {"name": "კოკა მიშელაძის ქუჩა", "maxspeed": "60"}, {"name": "სტურუას ქუჩა", "maxspeed": "60"}, {"name": "რ. ინანიშვილის ქუჩა", "maxspeed": "60"}, {"name": "წრომის ქუჩა", "maxspeed": "60"}, {"name": "Uiaragho III Lane", "maxspeed": "60"}, {"name": "დ. აღმაშენებლის ქუჩა", "maxspeed": "50"}, {"name": "არზაყან ემუხვარის", "maxspeed": "20"}, {"name": "არზაყან ემუხვარის, 1 შეს.", "maxspeed": "20"}, {"name": "არზაყან ემუხვარის, 2 შეს.", "maxspeed": "20"}, {"name": "დავით აღმაშენებლის ხეივანი", "maxspeed": "80"}, {"name": "ევგენი მიქელაძის ქუჩა", "maxspeed": "30"}, {"name": "გიორგი მინდელის ხიდი", "maxspeed": "70"}, {"name": "ხატაეთის ქუჩა", "maxspeed": "40"}, {"name": "დავით ახმაშენებლის ხეივანი", "maxspeed": "80"}, {"name": "ბარონ დე ბაის ქუჩა", "maxspeed": "40"}, {"name": "ჰაინრიხ კლაპროთის ქუჩა", "maxspeed": "40"}, {"name": "რ. დანიბეგაშვილის ქუჩა", "maxspeed": "40"}, {"name": "ნიკო ბურის ქუჩა", "maxspeed": "40"}, {"name": "გიორგი ბალანჩინის ქუჩა", "maxspeed": "70"}, {"name": "მეფე მირიანის ქუჩა", "maxspeed": "40"}, {"name": "დემეტრე თავდადებულის ქუჩა", "maxspeed": "40"}, {"name": "ბაგრატ III ქუჩა", "maxspeed": "40"}, {"name": "არჩილ მეფის ქუჩა", "maxspeed": "40"}, {"name": "პეტრე იბერის ქუჩა", "maxspeed": "40"}, {"name": "გიორგი ბრწყინვალის ქუჩა", "maxspeed": "40"}, {"name": "თეიმურაზ I ქუჩა", "maxspeed": "40"}, {"name": "ჯონ-მალხაზ შალიკაშვილის ქუჩა", "maxspeed": "60"}, {"name": "თეიმურაზ I-ის ქუჩა", "maxspeed": "40"}, {"name": "იოანე პეტრიწის ქუჩა", "maxspeed": "40"}, {"name": "ფერმწერთა ქუჩა", "maxspeed": "40"}, {"name": "Central Zemo Lisi Street", "maxspeed": "60"}, {"name": "მარნეულის გზატკეცილი", "maxspeed": "70"}, {"name": "რუსთავის გზატკეცილი", "maxspeed": "80"}, {"name": "ქინძმარაულის ქუჩა", "maxspeed": "50"}, {"name": "ქინძმარაულის I შესახვევი", "maxspeed": "40"}, {"name": "Br. Kiknavelidze Street", "maxspeed": "60"}, {"name": "Dariali Street", "maxspeed": "60"}, {"name": "Abashidze G. Street", "maxspeed": "60"}, {"name": "ვახტანგ ბოჭორიშვილის ქუჩა", "maxspeed": "40"}, {"name": "გიორგი მიროტაძის ქუჩა", "maxspeed": "40"}]